{"type": "FeatureCollection", "features": [ {"type": "Feature", "properties": {"norad_id": 30941, "name": "FENGYUN 1C DEB", "group": "fengyun-1c-debris", "lat": -75.50048340025023, "lon": -21.217088030479893, "alt_km": 793.800140042501, "timestamp": "2025-12-03T08:58:46.281237+00:00", "meta": {"OBJECT_NAME": "FENGYUN 1C DEB", "OBJECT_ID": "1999-025BAF", "EPOCH": "2025-12-01T13:49:03.246528", "MEAN_MOTION": 14.30862739, "ECCENTRICITY": 0.00349916, "INCLINATION": 98.5501, "RA_OF_ASC_NODE": 192.5869, "ARG_OF_PERICENTER": 348.4723, "MEAN_ANOMALY": 11.5655, "EPHEMERIS_TYPE": 0, "CLASSIFICATION_TYPE": "U", "NORAD_CAT_ID": 30941, "ELEMENT_SET_NO": 999, "REV_AT_EPOCH": 96466, "BSTAR": 0.0018784871, "MEAN_MOTION_DOT": 4.921e-05, "MEAN_MOTION_DDOT": 0}, "tle": {"line1": "1 30941U 99025BAF 25335.57573202  .00004921  00000+0  18785-2 0  9997", "line2": "2 30941  98.5501 192.5869 0034991 348.4723  11.5655 14.30862739964661"}}, "geometry": {"type": "Point", "coordinates": [-21.217088030479893, -75.50048340025023]}}, {"type": "Feature", "properties": {"norad_id": 30942, "name": "FENGYUN 1C DEB", "group": "fengyun-1c-debris", "lat": 81.13580931924747, "lon": -102.49909822510342, "alt_km": 764.0412409247429, "timestamp": "2025-12-03T08:58:46.281248+00:00", "meta": {"OBJECT_NAME": "FENGYUN 1C DEB", "OBJECT_ID": "1999-025BAG", "EPOCH": "2025-12-02T11:12:59.885856", "MEAN_MOTION": 14.14823361, "ECCENTRICITY": 0.01377441, "INCLINATION": 98.6796, "RA_OF_ASC_NODE": 334.9892, "ARG_OF_PERICENTER": 135.4924, "MEAN_ANOMALY": 17.8276, "EPHEMERIS_TYPE": 0, "CLASSIFICATION_TYPE": "U", "NORAD_CAT_ID": 30942, "ELEMENT_SET_NO": 999, "REV_AT_EPOCH": 96499, "BSTAR": 0.00026232761, "MEAN_MOTION_DOT": 5.13e-06, "MEAN_MOTION_DDOT": 0}, "tle": {"line1": "1 30942U 99025BAG 25336.46735979  .00000513  00000+0  26233-3 0  9999", "line2": "2 30942  98.6796 334.9892 0137744 135.4924  17.8276 14.14823361964998"}}, "geometry": {"type": "Point", "coordinates": [-102.49909822510342, 81.13580931924747]}}, {"type": "Feature", "properties": {"norad_id": 30943, "name": "FENGYUN 1C DEB", "group": "fengyun-1c-debris", "lat": 54.57044934294826, "lon": -20.986041418526867, "alt_km": 842.9723119439313, "timestamp": "2025-12-03T08:58:46.281258+00:00", "meta": {"OBJECT_NAME": "FENGYUN 1C DEB", "OBJECT_ID": "1999-025BAH", "EPOCH": "2025-12-02T12:11:59.658432", "MEAN_MOTION": 14.04474471, "ECCENTRICITY": 0.00510674, "INCLINATION": 98.7977, "RA_OF_ASC_NODE": 350.7478, "ARG_OF_PERICENTER": 93.7586, "MEAN_ANOMALY": 266.9423, "EPHEMERIS_TYPE": 0, "CLASSIFICATION_TYPE": "U", "NORAD_CAT_ID": 30943, "ELEMENT_SET_NO": 999, "REV_AT_EPOCH": 95598, "BSTAR": 0.00019112458, "MEAN_MOTION_DOT": 2.66e-06, "MEAN_MOTION_DDOT": 0}, "tle": {"line1": "1 30943U 99025BAH 25336.50832938  .00000266  00000+0  19112-3 0  9991", "line2": "2 30943  98.7977 350.7478 0051067  93.7586 266.9423 14.04474471955983"}}, "geometry": {"type": "Point", "coordinates": [-20.986041418526867, 54.57044934294826]}}, {"type": "Feature", "properties": {"norad_id": 30944, "name": "FENGYUN 1C DEB", "group": "fengyun-1c-debris", "lat": 60.12452979436013, "lon": 16.82225262584991, "alt_km": 669.8756228243801, "timestamp": "2025-12-03T08:58:46.281269+00:00", "meta": {"OBJECT_NAME": "FENGYUN 1C DEB", "OBJECT_ID": "1999-025BAJ", "EPOCH": "2025-12-02T23:20:30.078240", "MEAN_MOTION": 14.52417993, "ECCENTRICITY": 0.0149188, "INCLINATION": 98.852, "RA_OF_ASC_NODE": 32.1394, "ARG_OF_PERICENTER": 130.0224, "MEAN_ANOMALY": 354.4421, "EPHEMERIS_TYPE": 0, "CLASSIFICATION_TYPE": "U", "NORAD_CAT_ID": 30944, "ELEMENT_SET_NO": 999, "REV_AT_EPOCH": 98934, "BSTAR": 0.00023051, "MEAN_MOTION_DOT": 1.03e-05, "MEAN_MOTION_DDOT": 0}, "tle": {"line1": "1 30944U 99025BAJ 25336.97257035  .00001030  00000+0  23051-3 0  9999", "line2": "2 30944  98.8520  32.1394 0149188 130.0224 354.4421 14.52417993989340"}}, "geometry": {"type": "Point", "coordinates": [16.82225262584991, 60.12452979436013]}}, {"type": "Feature", "properties": {"norad_id": 30945, "name": "FENGYUN 1C DEB", "group": "fengyun-1c-debris", "lat": -40.43742489343041, "lon": 157.2084713292748, "alt_km": 819.9675057734721, "timestamp": "2025-12-03T08:58:46.281279+00:00", "meta": {"OBJECT_NAME": "FENGYUN 1C DEB", "OBJECT_ID": "1999-025BAK", "EPOCH": "2025-12-02T00:17:47.503104", "MEAN_MOTION": 14.29563665, "ECCENTRICITY": 0.00310477, "INCLINATION": 99.3898, "RA_OF_ASC_NODE": 343.8484, "ARG_OF_PERICENTER": 68.7641, "MEAN_ANOMALY": 347.6072, "EPHEMERIS_TYPE": 0, "CLASSIFICATION_TYPE": "U", "NORAD_CAT_ID": 30945, "ELEMENT_SET_NO": 999, "REV_AT_EPOCH": 96284, "BSTAR": 0.0019395565, "MEAN_MOTION_DOT": 4.94e-05, "MEAN_MOTION_DDOT": 0}, "tle": {"line1": "1 30945U 99025BAK 25336.01235536  .00004940  00000+0  19396-2 0  9996", "line2": "2 30945  99.3898 343.8484 0031047  68.7641 347.6072 14.29563665962845"}}, "geometry": {"type": "Point", "coordinates": [157.2084713292748, -40.43742489343041]}}, {"type": "Feature", "properties": {"norad_id": 30946, "name": "FENGYUN 1C DEB", "group": "fengyun-1c-debris", "lat": -79.3645613613248, "lon": 149.87839533270994, "alt_km": 702.4348681271904, "timestamp": "2025-12-03T08:58:46.281289+00:00", "meta": {"OBJECT_NAME": "FENGYUN 1C DEB", "OBJECT_ID": "1999-025BAL", "EPOCH": "2025-12-03T03:19:05.054016", "MEAN_MOTION": 14.48042126, "ECCENTRICITY": 0.0089136, "INCLINATION": 99.0391, "RA_OF_ASC_NODE": 91.6624, "ARG_OF_PERICENTER": 221.5405, "MEAN_ANOMALY": 264.2594, "EPHEMERIS_TYPE": 0, "CLASSIFICATION_TYPE": "U", "NORAD_CAT_ID": 30946, "ELEMENT_SET_NO": 999, "REV_AT_EPOCH": 98212, "BSTAR": 0.0012383, "MEAN_MOTION_DOT": 4.787e-05, "MEAN_MOTION_DDOT": 0}, "tle": {"line1": "1 30946U 99025BAL 25337.13825294  .00004787  00000+0  12383-2 0  9995", "line2": "2 30946  99.0391  91.6624 0089136 221.5405 264.2594 14.48042126982125"}}, "geometry": {"type": "Point", "coordinates": [149.87839533270994, -79.3645613613248]}}, {"type": "Feature", "properties": {"norad_id": 30947, "name": "FENGYUN 1C DEB", "group": "fengyun-1c-debris", "lat": -30.980004441504942, "lon": -127.8868015286356, "alt_km": 729.3325505974854, "timestamp": "2025-12-03T08:58:46.281300+00:00", "meta": {"OBJECT_NAME": "FENGYUN 1C DEB", "OBJECT_ID": "1999-025BAM", "EPOCH": "2025-12-01T03:41:10.986432", "MEAN_MOTION": 14.3800177, "ECCENTRICITY": 0.00958788, "INCLINATION": 98.8087, "RA_OF_ASC_NODE": 224.4953, "ARG_OF_PERICENTER": 282.3771, "MEAN_ANOMALY": 76.6697, "EPHEMERIS_TYPE": 0, "CLASSIFICATION_TYPE": "U", "NORAD_CAT_ID": 30947, "ELEMENT_SET_NO": 999, "REV_AT_EPOCH": 98326, "BSTAR": 0.00036480125, "MEAN_MOTION_DOT": 1.114e-05, "MEAN_MOTION_DDOT": 0}, "tle": {"line1": "1 30947U 99025BAM 25335.15359938  .00001114  00000+0  36480-3 0  9999", "line2": "2 30947  98.8087 224.4953 0095878 282.3771  76.6697 14.38001770983261"}}, "geometry": {"type": "Point", "coordinates": [-127.8868015286356, -30.980004441504942]}}, {"type": "Feature", "properties": {"norad_id": 30949, "name": "FENGYUN 1C DEB", "group": "fengyun-1c-debris", "lat": -16.403018029391287, "lon": -25.443999441421486, "alt_km": 766.5231625679216, "timestamp": "2025-12-03T08:58:46.281313+00:00", "meta": {"OBJECT_NAME": "FENGYUN 1C DEB", "OBJECT_ID": "1999-025BAP", "EPOCH": "2025-12-01T20:15:08.373888", "MEAN_MOTION": 14.1402851, "ECCENTRICITY": 0.01168865, "INCLINATION": 98.6974, "RA_OF_ASC_NODE": 330.4839, "ARG_OF_PERICENTER": 341.0642, "MEAN_ANOMALY": 136.6625, "EPHEMERIS_TYPE": 0, "CLASSIFICATION_TYPE": "U", "NORAD_CAT_ID": 30949, "ELEMENT_SET_NO": 999, "REV_AT_EPOCH": 96362, "BSTAR": 0.00027588479, "MEAN_MOTION_DOT": 5.16e-06, "MEAN_MOTION_DDOT": 0}, "tle": {"line1": "1 30949U 99025BAP 25335.84384692  .00000516  00000+0  27588-3 0  9996", "line2": "2 30949  98.6974 330.4839 0116886 341.0642 136.6625 14.14028510963621"}}, "geometry": {"type": "Point", "coordinates": [-25.443999441421486, -16.403018029391287]}}, {"type": "Feature", "properties": {"norad_id": 30954, "name": "FENGYUN 1C DEB", "group": "fengyun-1c-debris", "lat": -1.4426544519714548, "lon": 77.9261558857284, "alt_km": 921.2977074280125, "timestamp": "2025-12-03T08:58:46.281323+00:00", "meta": {"OBJECT_NAME": "FENGYUN 1C DEB", "OBJECT_ID": "1999-025BAU", "EPOCH": "2025-12-02T06:06:00.662112", "MEAN_MOTION": 14.14838551, "ECCENTRICITY": 0.012848, "INCLINATION": 98.7125, "RA_OF_ASC_NODE": 76.6114, "ARG_OF_PERICENTER": 217.1092, "MEAN_ANOMALY": 199.3871, "EPHEMERIS_TYPE": 0, "CLASSIFICATION_TYPE": "U", "NORAD_CAT_ID": 30954, "ELEMENT_SET_NO": 999, "REV_AT_EPOCH": 96239, "BSTAR": 0.0016393, "MEAN_MOTION_DOT": 3.383e-05, "MEAN_MOTION_DDOT": 0}, "tle": {"line1": "1 30954U 99025BAU 25336.25417433  .00003383  00000+0  16393-2 0  9994", "line2": "2 30954  98.7125  76.6114 0128480 217.1092 199.3871 14.14838551962392"}}, "geometry": {"type": "Point", "coordinates": [77.9261558857284, -1.4426544519714548]}}, {"type": "Feature", "properties": {"norad_id": 30956, "name": "FENGYUN 1C DEB", "group": "fengyun-1c-debris", "lat": 18.05450537839261, "lon": 8.691932622027824, "alt_km": 810.0216769810777, "timestamp": "2025-12-03T08:58:46.281333+00:00", "meta": {"OBJECT_NAME": "FENGYUN 1C DEB", "OBJECT_ID": "1999-025BAW", "EPOCH": "2025-12-02T00:46:05.015136", "MEAN_MOTION": 14.14147869, "ECCENTRICITY": 0.0049602, "INCLINATION": 98.761, "RA_OF_ASC_NODE": 10.2575, "ARG_OF_PERICENTER": 13.9486, "MEAN_ANOMALY": 15.3987, "EPHEMERIS_TYPE": 0, "CLASSIFICATION_TYPE": "U", "NORAD_CAT_ID": 30956, "ELEMENT_SET_NO": 999, "REV_AT_EPOCH": 96156, "BSTAR": 0.0010026276, "MEAN_MOTION_DOT": 1.889e-05, "MEAN_MOTION_DDOT": 0}, "tle": {"line1": "1 30956U 99025BAW 25336.03200249  .00001889  00000+0  10026-2 0  9993", "line2": "2 30956  98.7610  10.2575 0049602  13.9486  15.3987 14.14147869961563"}}, "geometry": {"type": "Point", "coordinates": [8.691932622027824, 18.05450537839261]}}]}